ONEWEB-0427             
1 50499U 21132AG  24326.33144713  .00000068  00000+0  14059-3 0  9994
2 50499  87.9094  89.4327 0001574 109.4565 250.6737 13.18688710146112
ONEWEB-0429             
1 50500U 21132AH  24325.78766249  .00000041  00000+0  71146-4 0  9991
2 50500  87.9100  89.5571 0001626  93.4159 266.7159 13.18687835146016
ONEWEB-0430             
1 50501U 21132AJ  24326.30776093  .00000182  00000+0  42953-3 0  9998
2 50501  87.9098  89.4531 0001238  92.3931 267.7343 13.18686889146129
ONEWEB-0432             
1 50502U 21132AK  24325.80822957 -.00000001  00000+0 -35875-4 0  9992
2 50502  87.9094  89.5432 0001272 142.3609 217.7613 13.18685778146012
ONEWEB-0440             
1 50503U 21132AL  24326.32672204  .00000218  00000+0  51931-3 0  9997
2 50503  87.9098  89.4331 0001970  91.3761 268.7597 13.18686148146076
ONEWEB-0450             
1 50504U 21132AM  24326.32053564  .00000108  00000+0  24243-3 0  9994
2 50504  87.9097  89.4631 0001511  87.9316 272.1989 13.18686989147390
ONEWEB-0410             
1 51622U 22012A   24325.89921176 -.00000038  00000+0 -13206-3 0  9999
2 51622  87.9073 120.0516 0002522 129.1417 230.9939 13.17648496138201
ONEWEB-0411             
1 51623U 22012B   24326.48446946 -.00000167  00000+0 -51492-3 0  9995
2 51623  87.8893 150.3058 0000890  76.3299 283.7927 13.10376760134287
